CSS (TIANHE)            
1 48274U 21035A   24133.83783869  .00061400  00000+0  63075-3 0  9995
2 48274  41.4685 299.0486 0003519 327.9125  32.1501 15.63986132173568
